NORAD_CAT_ID,OBJECT_NAME,OBJECT_TYPE,EPOCH,MEAN_MOTION,ECCENTRICITY,INCLINATION,RA_OF_ASC_NODE,ARG_OF_PERICENTER,MEAN_ANOMALY,BSTAR,MEAN_MOTION_DOT,MEAN_MOTION_DDOT,TLE_LINE0,TLE_LINE1,TLE_LINE2,SEMIMAJOR_AXIS,PERIOD,APOGEE,PERIGEE,DECAYED
52568.0,STARLINK-3930,PAYLOAD,2024-08-12 14:09:26,15.08892242,0.0002619,53.2145,176.3542,76.9424,283.1861,0.0014328,0.00022622,0.0,0 STARLINK-3930,1 52568U 22051AM  24225.58988818  .00022622  00000-0  14328-2 0  9990,2 52568  53.2145 176.3542 0002619  76.9424 283.1861 15.08892242124913,6917.721,95.434,541.397,537.774,0.0
52568.0,STARLINK-3930,PAYLOAD,2024-08-12 20:30:59,15.08843442,0.0001263,53.2144,175.1647,88.5111,271.6025,-0.00012776,-2.321e-05,0.0,0 STARLINK-3930,1 52568U 22051AM  24225.85485314 -.00002321  00000-0 -12776-3 0  9995,2 52568  53.2144 175.1647 0001263  88.5111 271.6025 15.08843442125026,6917.87,95.437,540.609,538.861,0.0
52568.0,STARLINK-3930,PAYLOAD,2024-08-13 02:52:31,15.08853385,0.0002056,53.2147,173.9767,80.9867,279.1358,5.8767e-05,6.47e-06,0.0,0 STARLINK-3930,1 52568U 22051AM  24226.11981158  .00000647  00000-0  58767-4 0  9990,2 52568  53.2147 173.9767 0002056  80.9867 279.1358 15.08853385125066,6917.839,95.437,541.127,538.282,0.0
52568.0,STARLINK-3930,PAYLOAD,2024-08-13 14:00:16,15.08771346,0.0001594,53.2154,171.8943,112.0139,248.1022,-0.0011549,-0.00018587,0.0,0 STARLINK-3930,1 52568U 22051AM  24226.58352228 -.00018587  00000-0 -11549-2 0  9990,2 52568  53.2154 171.8943 0001594 112.0139 248.1022 15.08771346125062,6918.09,95.442,541.058,538.853,0.0
52568.0,STARLINK-3930,PAYLOAD,2024-08-13 20:21:49,15.08772092,0.0001682,53.2148,170.7052,235.2709,124.8125,-0.00047394,-7.809e-05,0.0,0 STARLINK-3930,1 52568U 22051AM  24226.84848403 -.00007809  00000-0 -47394-3 0  9997,2 52568  53.2148 170.7052 0001682 235.2709 124.8125 15.08772092125178,6918.088,95.442,541.117,538.789,0.0
52568.0,STARLINK-3930,PAYLOAD,2024-08-14 02:43:22,15.08831155,0.0001781,53.2141,169.5154,109.5743,250.5442,0.0019227,0.00030437,0.0,0 STARLINK-3930,1 52568U 22051AM  24227.11345117  .00030437  00000-0  19227-2 0  9996,2 52568  53.2141 169.5154 0001781 109.5743 250.5442 15.08831155125211,6917.907,95.438,541.005,538.54,0.0
52568.0,STARLINK-3930,PAYLOAD,2024-08-14 13:51:03,15.0886231,0.0001639,53.2142,167.4343,113.0635,247.053,0.0011535,0.00018129,0.0,0 STARLINK-3930,1 52568U 22051AM  24227.57712463  .00018129  00000-0  11535-2 0  9996,2 52568  53.2142 167.4343 0001639 113.0635 247.0530 15.08862310125217,6917.812,95.436,540.811,538.543,0.0
52568.0,STARLINK-3930,PAYLOAD,2024-08-15 02:34:08,15.0886127,0.0001759,53.2151,165.0552,118.2995,241.8175,0.00047461,7.278e-05,0.0,0 STARLINK-3930,1 52568U 22051AM  24228.10703865  .00007278  00000-0  47461-3 0  9993,2 52568  53.2151 165.0552 0001759 118.2995 241.8175 15.08861270125369,6917.815,95.436,540.897,538.464,0.0
52568.0,STARLINK-3930,PAYLOAD,2024-08-16 02:24:54,15.0885355,0.0001372,53.2145,160.5933,114.4001,245.7134,0.00030788,4.617e-05,0.0,0 STARLINK-3930,1 52568U 22051AM  24229.10063183  .00004617  00000-0  30788-3 0  9994,2 52568  53.2145 160.5933 0001372 114.4001 245.7134 15.08853550125519,6917.839,95.437,540.653,538.755,0.0
52568.0,STARLINK-3930,PAYLOAD,2024-08-16 19:54:09,15.08847673,0.0001314,53.2145,157.3208,98.2195,261.8946,0.00019541,2.824e-05,0.0,0 STARLINK-3930,1 52568U 22051AM  24229.82927095  .00002824  00000-0  19541-3 0  9996,2 52568  53.2145 157.3208 0001314  98.2195 261.8946 15.08847673125628,6917.857,95.437,540.631,538.813,0.0
52568.0,STARLINK-3930,PAYLOAD,2024-08-17 00:40:18,15.08845953,0.0001287,53.2144,156.4293,99.5467,260.5671,2.0508e-05,3.9e-07,0.0,0 STARLINK-3930,1 52568U 22051AM  24230.02799090  .00000039  00000-0  20508-4 0  9994,2 52568  53.2144 156.4293 0001287  99.5467 260.5671 15.08845953125581,6917.862,95.437,540.618,538.837,0.0
52568.0,STARLINK-3930,PAYLOAD,2024-08-17 18:09:32,15.08843035,0.0001333,53.2155,153.1606,95.6148,264.4997,9.9831e-05,1.301e-05,0.0,0 STARLINK-3930,1 52568U 22051AM  24230.75663091  .00001301  00000-0  99831-4 0  9993,2 52568  53.2155 153.1606 0001333  95.6148 264.4997 15.08843035125763,6917.871,95.437,540.658,538.814,0.0
52568.0,STARLINK-3930,PAYLOAD,2024-08-18 02:06:28,15.0883757,0.0001298,53.2153,151.6703,92.9663,267.1478,7.3187e-06,-1.71e-06,0.0,0 STARLINK-3930,1 52568U 22051AM  24231.08783404 -.00000171  00000-0  73187-5 0  9993,2 52568  53.2153 151.6703 0001298  92.9663 267.1478 15.08837570125811,6917.888,95.438,540.651,538.855,0.0
52568.0,STARLINK-3930,PAYLOAD,2024-08-19 03:32:39,15.08837839,0.0001269,53.2164,146.9138,91.6209,268.4929,5.1479e-05,5.31e-06,0.0,0 STARLINK-3930,1 52568U 22051AM  24232.14767899  .00000531  00000-0  51479-4 0  9999,2 52568  53.2164 146.9138 0001269  91.6209 268.4929 15.08837839125972,6917.887,95.438,540.63,538.874,0.0
52568.0,STARLINK-3930,PAYLOAD,2024-08-19 11:29:34,15.08851572,0.0001383,53.2164,145.4334,65.2598,294.8537,0.00013795,1.909e-05,0.0,0 STARLINK-3930,1 52568U 22051AM  24232.47886786  .00001909  00000-0  13795-3 0  9990,2 52568  53.2164 145.4334 0001383  65.2598 294.8537 15.08851572126024,6917.845,95.437,540.667,538.753,0.0
52568.0,STARLINK-3930,PAYLOAD,2024-08-19 17:51:08,15.0882042,0.0001439,53.2165,144.2386,87.6681,272.4476,-1.8274e-05,-5.79e-06,0.0,0 STARLINK-3930,1 52568U 22051AM  24232.74385232 -.00000579  00000-0 -18274-4 0  9992,2 52568  53.2165 144.2386 0001439  87.6681 272.4476 15.08820420126068,6917.94,95.439,540.801,538.81,0.0
52568.0,STARLINK-3930,PAYLOAD,2024-08-20 03:23:26,15.08834542,0.0001534,53.2167,142.4565,84.3746,275.7421,0.00013532,1.866e-05,0.0,0 STARLINK-3930,1 52568U 22051AM  24233.14128395  .00001866  00000-0  13532-3 0  9991,2 52568  53.2167 142.4565 0001534  84.3746 275.7421 15.08834542126124,6917.897,95.438,540.823,538.701,0.0
52568.0,STARLINK-3930,PAYLOAD,2024-08-21 03:14:13,15.0884671,0.0001532,53.2157,137.9961,87.4209,272.6959,0.00019107,2.755e-05,0.0,0 STARLINK-3930,1 52568U 22051AM  24234.13487904  .00002755  00000-0  19107-3 0  9997,2 52568  53.2157 137.9961 0001532  87.4209 272.6959 15.08846710126276,6917.86,95.437,540.785,538.665,0.0
52568.0,STARLINK-3930,PAYLOAD,2024-08-21 20:43:26,15.08869502,0.0001799,53.2156,134.7232,88.8425,271.2773,-0.00071143,-0.00011602,0.0,0 STARLINK-3930,1 52568U 22051AM  24234.86350340 -.00011602  00000-0 -71143-3 0  9991,2 52568  53.2156 134.7232 0001799  88.8425 271.2773 15.08869502126319,6917.79,95.436,540.9,538.411,0.0
52568.0,STARLINK-3930,PAYLOAD,2024-08-21 22:18:51,15.08831215,0.0001458,53.2155,134.4255,100.0223,260.0934,0.00042719,6.516e-05,0.0,0 STARLINK-3930,1 52568U 22051AM  24234.92976768  .00006516  00000-0  42719-3 0  9999,2 52568  53.2155 134.4255 0001458 100.0223 260.0934 15.08831215126398,6917.907,95.438,540.781,538.764,0.0
